{
  "type": "FeatureCollection",
  "features": [
    {
      "type": "Feature",
      "properties": {
        "norad_id": 59600,
        "name": "GSAT0227 (GALILEO 30)",
        "group": "gnss",
        "lat": 29.80908484868277,
        "lon": 129.7454726633855,
        "alt_km": 23216.795941270684,
        "timestamp": "2025-12-18T23:35:49.302675+00:00",
        "meta_object_name": "GSAT0227 (GALILEO 30)",
        "meta_object_id": "2024-079C",
        "meta_epoch": "2025-12-17T17:58:49.575360",
        "meta_mean_motion": 1.704749,
        "meta_eccentricity": 0.00029705,
        "meta_inclination": 54.9996,
        "meta_ra_of_asc_node": 106.1542,
        "meta_arg_of_pericenter": 116.5176,
        "meta_mean_anomaly": 243.4717,
        "meta_ephemeris_type": 0,
        "meta_classification_type": "U",
        "meta_norad_cat_id": 59600,
        "meta_element_set_no": 999,
        "meta_rev_at_epoch": 1027,
        "meta_bstar": 0,
        "meta_mean_motion_dot": -9e-08,
        "meta_mean_motion_ddot": 0,
        "tle_line1": "1 59600U 24079C   25351.74918490 -.00000009  00000+0  00000+0 0  9998",
        "tle_line2": "2 59600  54.9996 106.1542 0002970 116.5176 243.4717  1.70474900 10278"
      },
      "geometry": {
        "type": "Point",
        "coordinates": [
          129.7454726633855,
          29.80908484868277
        ]
      }
    },
    {
      "type": "Feature",
      "properties": {
        "norad_id": 61182,
        "name": "GSAT0232 (GALILEO 32)",
        "group": "gnss",
        "lat": -40.20750629559803,
        "lon": 82.18863223152606,
        "alt_km": 23221.801162539046,
        "timestamp": "2025-12-18T23:35:49.302687+00:00",
        "meta_object_name": "GSAT0232 (GALILEO 32)",
        "meta_object_id": "2024-167A",
        "meta_epoch": "2025-12-18T07:28:16.745952",
        "meta_mean_motion": 1.70473695,
        "meta_eccentricity": 0.00018931,
        "meta_inclination": 55.2391,
        "meta_ra_of_asc_node": 226.278,
        "meta_arg_of_pericenter": 209.6785,
        "meta_mean_anomaly": 329.812,
        "meta_ephemeris_type": 0,
        "meta_classification_type": "U",
        "meta_norad_cat_id": 61182,
        "meta_element_set_no": 999,
        "meta_rev_at_epoch": 779,
        "meta_bstar": 0,
        "meta_mean_motion_dot": 6.2e-07,
        "meta_mean_motion_ddot": 0,
        "tle_line1": "1 61182U 24167A   25352.31130493  .00000062  00000+0  00000+0 0  9995",
        "tle_line2": "2 61182  55.2391 226.2780 0001893 209.6785 329.8120  1.70473695  7790"
      },
      "geometry": {
        "type": "Point",
        "coordinates": [
          82.18863223152606,
          -40.20750629559803
        ]
      }
    },
    {
      "type": "Feature",
      "properties": {
        "norad_id": 61183,
        "name": "GSAT0226 (GALILEO 31)",
        "group": "gnss",
        "lat": -12.767029079707168,
        "lon": -142.7695950298928,
        "alt_km": 23225.74205219477,
        "timestamp": "2025-12-18T23:35:49.302700+00:00",
        "meta_object_name": "GSAT0226 (GALILEO 31)",
        "meta_object_id": "2024-167B",
        "meta_epoch": "2025-12-18T14:21:31.891392",
        "meta_mean_motion": 1.70473759,
        "meta_eccentricity": 0.00010399,
        "meta_inclination": 55.2376,
        "meta_ra_of_asc_node": 226.2756,
        "meta_arg_of_pericenter": 106.8456,
        "meta_mean_anomaly": 1.4308,
        "meta_ephemeris_type": 0,
        "meta_classification_type": "U",
        "meta_norad_cat_id": 61183,
        "meta_element_set_no": 999,
        "meta_rev_at_epoch": 777,
        "meta_bstar": 0,
        "meta_mean_motion_dot": 6.4e-07,
        "meta_mean_motion_ddot": 0,
        "tle_line1": "1 61183U 24167B   25352.59828578  .00000064  00000+0  00000+0 0  9996",
        "tle_line2": "2 61183  55.2376 226.2756 0001039 106.8456   1.4308  1.70473759  7772"
      },
      "geometry": {
        "type": "Point",
        "coordinates": [
          -142.7695950298928,
          -12.767029079707168
        ]
      }
    },
    {
      "type": "Feature",
      "properties": {
        "norad_id": 61186,
        "name": "BEIDOU-3 M25 (C47)",
        "group": "gnss",
        "lat": -31.042336576943722,
        "lon": -76.80146893860987,
        "alt_km": 21517.89381465052,
        "timestamp": "2025-12-18T23:35:49.302712+00:00",
        "meta_object_name": "BEIDOU-3 M25 (C47)",
        "meta_object_id": "2024-168B",
        "meta_epoch": "2025-12-18T00:39:01.420992",
        "meta_mean_motion": 1.86230296,
        "meta_eccentricity": 0.00054425,
        "meta_inclination": 54.6373,
        "meta_ra_of_asc_node": 308.537,
        "meta_arg_of_pericenter": 299.044,
        "meta_mean_anomaly": 100.6746,
        "meta_ephemeris_type": 0,
        "meta_classification_type": "U",
        "meta_norad_cat_id": 61186,
        "meta_element_set_no": 999,
        "meta_rev_at_epoch": 841,
        "meta_bstar": 0,
        "meta_mean_motion_dot": -8.7e-07,
        "meta_mean_motion_ddot": 0,
        "tle_line1": "1 61186U 24168B   25352.02709978 -.00000087  00000+0  00000+0 0  9996",
        "tle_line2": "2 61186  54.6373 308.5370 0005442 299.0440 100.6746  1.86230296  8415"
      },
      "geometry": {
        "type": "Point",
        "coordinates": [
          -76.80146893860987,
          -31.042336576943722
        ]
      }
    },
    {
      "type": "Feature",
      "properties": {
        "norad_id": 61187,
        "name": "BEIDOU-3 M27 (C49)",
        "group": "gnss",
        "lat": 54.23324667181358,
        "lon": 48.33467421273145,
        "alt_km": 21524.903834513683,
        "timestamp": "2025-12-18T23:35:49.302726+00:00",
        "meta_object_name": "BEIDOU-3 M27 (C49)",
        "meta_object_id": "2024-168C",
        "meta_epoch": "2025-12-18T11:15:38.296800",
        "meta_mean_motion": 1.86230443,
        "meta_eccentricity": 0.00025049,
        "meta_inclination": 54.6324,
        "meta_ra_of_asc_node": 308.5054,
        "meta_arg_of_pericenter": 339.4033,
        "meta_mean_anomaly": 131.6614,
        "meta_ephemeris_type": 0,
        "meta_classification_type": "U",
        "meta_norad_cat_id": 61187,
        "meta_element_set_no": 999,
        "meta_rev_at_epoch": 589,
        "meta_bstar": 0,
        "meta_mean_motion_dot": -8.4e-07,
        "meta_mean_motion_ddot": 0,
        "tle_line1": "1 61187U 24168C   25352.46919325 -.00000084  00000+0  00000+0 0  9991",
        "tle_line2": "2 61187  54.6324 308.5054 0002504 339.4033 131.6614  1.86230443  5895"
      },
      "geometry": {
        "type": "Point",
        "coordinates": [
          48.33467421273145,
          54.23324667181358
        ]
      }
    },
    {
      "type": "Feature",
      "properties": {
        "norad_id": 62339,
        "name": "GPS BIII-7  (PRN 01)",
        "group": "gnss",
        "lat": 54.89173212081628,
        "lon": 69.65250810372775,
        "alt_km": 20183.042196333998,
        "timestamp": "2025-12-18T23:35:49.302737+00:00",
        "meta_object_name": "GPS BIII-7  (PRN 01)",
        "meta_object_id": "2024-242A",
        "meta_epoch": "2025-12-18T08:46:28.895808",
        "meta_mean_motion": 2.00568182,
        "meta_eccentricity": 0.0012509,
        "meta_inclination": 54.922,
        "meta_ra_of_asc_node": 341.5124,
        "meta_arg_of_pericenter": 345.6877,
        "meta_mean_anomaly": 17.1618,
        "meta_ephemeris_type": 0,
        "meta_classification_type": "U",
        "meta_norad_cat_id": 62339,
        "meta_element_set_no": 999,
        "meta_rev_at_epoch": 763,
        "meta_bstar": 0,
        "meta_mean_motion_dot": -8.5e-07,
        "meta_mean_motion_ddot": 0,
        "tle_line1": "1 62339U 24242A   25352.36561222 -.00000085  00000+0  00000+0 0  9993",
        "tle_line2": "2 62339  54.9220 341.5124 0012509 345.6877  17.1618  2.00568182  7636"
      },
      "geometry": {
        "type": "Point",
        "coordinates": [
          69.65250810372775,
          54.89173212081628
        ]
      }
    },
    {
      "type": "Feature",
      "properties": {
        "norad_id": 62850,
        "name": "NVS-02 (IRNSS-1K)",
        "group": "gnss",
        "lat": 4.3849319907605135,
        "lon": -23.06051842607629,
        "alt_km": 465.4236164725726,
        "timestamp": "2025-12-18T23:35:49.302750+00:00",
        "meta_object_name": "NVS-02 (IRNSS-1K)",
        "meta_object_id": "2025-020A",
        "meta_epoch": "2025-12-18T01:29:52.441728",
        "meta_mean_motion": 2.17599272,
        "meta_eccentricity": 0.73474385,
        "meta_inclination": 20.9702,
        "meta_ra_of_asc_node": 325.733,
        "meta_arg_of_pericenter": 29.685,
        "meta_mean_anomaly": 356.832,
        "meta_ephemeris_type": 0,
        "meta_classification_type": "U",
        "meta_norad_cat_id": 62850,
        "meta_element_set_no": 999,
        "meta_rev_at_epoch": 703,
        "meta_bstar": 0.00017861505,
        "meta_mean_motion_dot": 3.61e-06,
        "meta_mean_motion_ddot": 0,
        "tle_line1": "1 62850U 25020A   25352.06241252  .00000361  00000+0  17862-3 0  9995",
        "tle_line2": "2 62850  20.9702 325.7330 7347438  29.6850 356.8320  2.17599272  7033"
      },
      "geometry": {
        "type": "Point",
        "coordinates": [
          -23.06051842607629,
          4.3849319907605135
        ]
      }
    }
  ]
}